NORAD_CAT_ID,OBJECT_NAME,OBJECT_TYPE,EPOCH,MEAN_MOTION,ECCENTRICITY,INCLINATION,RA_OF_ASC_NODE,ARG_OF_PERICENTER,MEAN_ANOMALY,BSTAR,MEAN_MOTION_DOT,MEAN_MOTION_DDOT,TLE_LINE0,TLE_LINE1,TLE_LINE2,SEMIMAJOR_AXIS,PERIOD,APOGEE,PERIGEE,DECAYED
51749.0,STARLINK-3451,PAYLOAD,2022-11-08 08:37:21,15.08845395,0.0001957,53.219,23.9419,42.5449,317.5694,0.00020063,2.907e-05,0.0,0 STARLINK-3451,1 51749U 22016AM  22312.35927146  .00002907  00000-0  20063-3 0  9996,2 51749  53.2190  23.9419 0001957  42.5449 317.5694 15.08845395 40890,6917.864000000001,95.437,541.0830000000002,538.375,0.0
51749.0,STARLINK-3451,PAYLOAD,2022-11-09 11:38:55,15.08834518,0.0002184,53.2172,18.8864,31.6693,328.4430000000001,-1.2762e-05,-4.91e-06,0.0,0 STARLINK-3451,1 51749U 22016AM  22313.48536150 -.00000491  00000-0 -12762-4 0  9998,2 51749  53.2172  18.8864 0002184  31.6693 328.4430 15.08834518 39959,6917.897,95.438,541.273,538.251,0.0
51749.0,STARLINK-3451,PAYLOAD,2022-11-09 21:11:14,15.08826479,0.0002092,53.2173,17.1029,32.3113,327.8007,-6.6345000000000014e-06,-3.94e-06,0.0,0 STARLINK-3451,1 51749U 22016AM  22313.88280805 -.00000394  00000-0 -66345-5 0  9994,2 51749  53.2173  17.1029 0002092  32.3113 327.8007 15.08826479 40017,6917.922,95.438,541.234,538.339,0.0
51749.0,STARLINK-3451,PAYLOAD,2022-11-10 13:05:05,15.08857235,0.0002082,53.217,14.1305,39.9843,320.1302,-0.00027652,-4.689e-05,0.0,0 STARLINK-3451,1 51749U 22016AM  22314.54519754 -.00004689  00000-0 -27652-3 0  9993,2 51749  53.2170  14.1305 0002082  39.9843 320.1302 15.08857235 40119,6917.828,95.436,541.133,538.252,0.0
51749.0,STARLINK-3451,PAYLOAD,2022-11-11 11:20:28,15.08837343,0.0002253,53.2171,9.9663,37.4379,322.677,6.4049e-05,7.31e-06,0.0,0 STARLINK-3451,1 51749U 22016AM  22315.47255727  .00000731  00000-0  64049-4 0  9997,2 51749  53.2171   9.9663 0002253  37.4379 322.6770 15.08837343 41368,6917.889,95.438,541.312,538.195,0.0
51749.0,STARLINK-3451,PAYLOAD,2022-11-11 20:52:48,15.08831014,0.0002229,53.2169,8.1822,38.5092,321.6059,5.401600000000001e-05,5.71e-06,0.0,0 STARLINK-3451,1 51749U 22016AM  22315.87000287  .00000571  00000-0  54016-4 0  9995,2 51749  53.2169   8.1822 0002229  38.5092 321.6059 15.08831014 40312,6917.908,95.438,541.315,538.231,0.0
51749.0,STARLINK-3451,PAYLOAD,2022-11-12 12:46:39,15.08839428,0.0002398,53.2169,5.2093,36.3257,323.7897,5.682e-05,6.16e-06,0.0,0 STARLINK-3451,1 51749U 22016AM  22316.53239875  .00000616  00000-0  56820-4 0  9991,2 51749  53.2169   5.2093 0002398  36.3257 323.7897 15.08839428 41520,6917.882,95.438,541.406,538.0880000000002,0.0
51749.0,STARLINK-3451,PAYLOAD,2022-11-12 20:43:34,15.08842292,0.0002305,53.2174,3.7227,39.0471,321.0687,8.7861e-05,1.11e-05,0.0,0 STARLINK-3451,1 51749U 22016AM  22316.86359450  .00001110  00000-0  87861-4 0  9998,2 51749  53.2174   3.7227 0002305  39.0471 321.0687 15.08842292 40467,6917.873000000001,95.437,541.3330000000002,538.144,0.0
51749.0,STARLINK-3451,PAYLOAD,2022-11-13 03:05:06,15.08847262,0.0002258,53.2172,2.5317,37.9969,322.1182,4.132100000000001e-05,3.69e-06,0.0,0 STARLINK-3451,1 51749U 22016AM  22317.12855113  .00000369  00000-0  41321-4 0  9991,2 51749  53.2172   2.5317 0002258  37.9969 322.1182 15.08847262 41610,6917.858,95.437,541.285,538.161,0.0
51749.0,STARLINK-3451,PAYLOAD,2022-11-13 09:26:39,15.088378400000002,0.0002184,53.2172,1.3438,31.9753,328.1372,-5.5656e-06,-3.77e-06,0.0,0 STARLINK-3451,1 51749U 22016AM  22317.39351740 -.00000377  00000-0 -55656-5 0  9995,2 51749  53.2172   1.3438 0002184  31.9753 328.1372 15.08837840 41656,6917.887,95.438,541.263,538.241,0.0
51749.0,STARLINK-3451,PAYLOAD,2022-11-14 09:17:27,15.08834985,0.0002264,53.2172,356.8829,34.0719,326.0419,-8.8411e-05,-1.695e-05,0.0,0 STARLINK-3451,1 51749U 22016AM  22318.38712617 -.00001695  00000-0 -88411-4 0  9997,2 51749  53.2172 356.8829 0002264  34.0719 326.0419 15.08834985 41806,6917.896,95.438,541.327,538.195,0.0
51749.0,STARLINK-3451,PAYLOAD,2022-11-15 05:57:28,15.08844674,0.0002466,53.2169,353.0166,40.2382,319.8792,-0.00012787,-2.323e-05,0.0,0 STARLINK-3451,1 51749U 22016AM  22319.24824203 -.00002323  00000-0 -12787-3 0  9999,2 51749  53.2169 353.0166 0002466  40.2382 319.8792 15.08844674 41938,6917.866,95.437,541.437,538.025,0.0
51749.0,STARLINK-3451,PAYLOAD,2022-11-15 12:19:01,15.08829141,0.0002339,53.2166,351.8272,38.1165,321.9992,5.8894e-05,6.49e-06,0.0,0 STARLINK-3451,1 51749U 22016AM  22319.51320649  .00000649  00000-0  58894-4 0  9991,2 51749  53.2166 351.8272 0002339  38.1165 321.9992 15.08829141 40862,6917.9140000000025,95.438,541.3969999999998,538.16,0.0
51749.0,STARLINK-3451,PAYLOAD,2022-11-16 10:34:24,15.08833212,0.0002352,53.2163,347.6635,32.0623,328.0512,6.0278e-05,6.71e-06,0.0,0 STARLINK-3451,1 51749U 22016AM  22320.44056690  .00000671  00000-0  60278-4 0  9991,2 51749  53.2163 347.6635 0002352  32.0623 328.0512 15.08833212 41009,6917.901,95.438,541.393,538.139,0.0
51749.0,STARLINK-3451,PAYLOAD,2022-11-16 18:31:20,15.08836291,0.0002385,53.2167,346.1765,33.4349,326.6794,2.5218e-07,-2.84e-06,0.0,0 STARLINK-3451,1 51749U 22016AM  22320.77176785 -.00000284  00000-0  25218-6 0  9993,2 51749  53.2167 346.1765 0002385  33.4349 326.6794 15.08836291 42161,6917.892,95.438,541.4069999999998,538.107,0.0
51749.0,STARLINK-3451,PAYLOAD,2022-11-17 10:25:12,15.08832946,0.0002397,53.2165,343.2031,34.4801,325.6346,2.1459e-05,5.3e-07,0.0,0 STARLINK-3451,1 51749U 22016AM  22321.43417124  .00000053  00000-0  21459-4 0  9996,2 51749  53.2165 343.2031 0002397  34.4801 325.6346 15.08832946 41153,6917.901999999999,95.438,541.425,538.109,0.0
51749.0,STARLINK-3451,PAYLOAD,2022-11-18 02:19:02,15.08843662,0.0002307,53.2168,340.2293,36.0065,324.1083,6.6067e-05,7.63e-06,0.0,0 STARLINK-3451,1 51749U 22016AM  22322.09656193  .00000763  00000-0  66067-4 0  9992,2 51749  53.2168 340.2293 0002307  36.0065 324.1083 15.08843662 42367,6917.869000000002,95.437,541.33,538.138,0.0
51749.0,STARLINK-3451,PAYLOAD,2022-11-18 18:12:54,15.08840534,0.000238,53.2168,337.256,33.7859,326.3284,3.2259000000000004e-05,2.25e-06,0.0,0 STARLINK-3451,1 51749U 22016AM  22322.75896442  .00000225  00000-0  32259-4 0  9997,2 51749  53.2168 337.2560 0002380  33.7859 326.3284 15.08840534 41356,6917.879,95.438,541.39,538.097,0.0
51749.0,STARLINK-3451,PAYLOAD,2022-11-19 10:06:45,15.08836926,0.0002332,53.2164,334.2818,25.6037,334.50699999999995,3.1733e-05,2.17e-06,0.0,0 STARLINK-3451,1 51749U 22016AM  22323.42136518  .00000217  00000-0  31733-4 0  9990,2 51749  53.2164 334.2818 0002332  25.6037 334.5070 15.08836926 41455,6917.89,95.438,541.368,538.1419999999998,0.0
51749.0,STARLINK-3451,PAYLOAD,2022-11-19 18:03:41,15.0884235,0.0002124,53.2163,332.7952,23.2978,336.811,-5.0254e-06,-3.68e-06,0.0,0 STARLINK-3451,1 51749U 22016AM  22323.75256152 -.00000368  00000-0 -50254-5 0  9992,2 51749  53.2163 332.7952 0002124  23.2978 336.8110 15.08842350 42610,6917.873000000001,95.437,541.2080000000002,538.269,0.0
51749.0,STARLINK-3451,PAYLOAD,2022-11-20 11:32:56,15.08837278,0.0002456,53.2164,329.5242,32.7105,327.4039,-3.8855e-05,-9.07e-06,0.0,0 STARLINK-3451,1 51749U 22016AM  22324.48120710 -.00000907  00000-0 -38855-4 0  9994,2 51749  53.2164 329.5242 0002456  32.7105 327.4039 15.08837278 42723,6917.889,95.438,541.453,538.055,0.0
51749.0,STARLINK-3451,PAYLOAD,2022-11-21 06:37:33,15.08853157,0.000259,53.2161,325.9546,32.9825,327.1328,-0.00028517,-4.826e-05,0.0,0 STARLINK-3451,1 51749U 22016AM  22325.27608396 -.00004826  00000-0 -28517-3 0  9990,2 51749  53.2161 325.9546 0002590  32.9825 327.1328 15.08853157 42842,6917.84,95.437,541.497,537.913,0.0
51749.0,STARLINK-3451,PAYLOAD,2022-11-22 09:39:07,15.08835836,0.0002491,53.2162,320.9012,32.9456,327.1691,4.308800000000001e-05,3.97e-06,0.0,0 STARLINK-3451,1 51749U 22016AM  22326.40216640  .00000397  00000-0  43088-4 0  9991,2 51749  53.2162 320.9012 0002491  32.9456 327.1691 15.08835836 43013,6917.893,95.438,541.481,538.035,0.0
51749.0,STARLINK-3451,PAYLOAD,2022-11-23 06:19:08,15.08827376,0.0002478,53.2159,317.0354,31.3547,328.7592,1.0745999999999997e-05,-1.17e-06,0.0,0 STARLINK-3451,1 51749U 22016AM  22327.26329534 -.00000117  00000-0  10746-4 0  9999,2 51749  53.2159 317.0354 0002478  31.3547 328.7592 15.08827376 43145,6917.919,95.438,541.498,538.07,0.0
51749.0,STARLINK-3451,PAYLOAD,2022-11-23 09:29:55,15.08828072,0.000251,53.2156,316.4403,31.4643,328.6499,8.924600000000001e-06,-1.46e-06,0.0,0 STARLINK-3451,1 51749U 22016AM  22327.39577578 -.00000146  00000-0  89246-5 0  9990,2 51749  53.2156 316.4403 0002510  31.4643 328.6499 15.08828072 42053,6917.917,95.438,541.518,538.045,0.0
51749.0,STARLINK-3451,PAYLOAD,2022-11-23 15:51:27,15.08832675,0.0002548,53.2158,315.2508,33.3464,326.7688,-5.06e-06,-3.69e-06,0.0,0 STARLINK-3451,1 51749U 22016AM  22327.66073490 -.00000369  00000-0 -50600-5 0  9994,2 51749  53.2158 315.2508 0002548  33.3464 326.7688 15.08832675 42098,6917.903,95.438,541.53,538.005,0.0
51749.0,STARLINK-3451,PAYLOAD,2022-11-24 06:09:55,15.08856516,0.0002541,53.2163,312.5736,32.9766,327.1384,-0.00018928,-3.301e-05,0.0,0 STARLINK-3451,1 51749U 22016AM  22328.25688698 -.00003301  00000-0 -18928-3 0  9996,2 51749  53.2163 312.5736 0002541  32.9766 327.1384 15.08856516 43291,6917.83,95.437,541.453,537.937,0.0
51749.0,STARLINK-3451,PAYLOAD,2022-11-24 07:45:18,15.08841475,0.000252,53.2174,312.2771,33.4539,326.6612,-1.7724000000000002e-05,-5.71e-06,0.0,0 STARLINK-3451,1 51749U 22016AM  22328.32313065 -.00000571  00000-0 -17724-4 0  9997,2 51749  53.2174 312.2771 0002520  33.4539 326.6612 15.08841475 43308,6917.876,95.437,541.484,537.998,0.0
51749.0,STARLINK-3451,PAYLOAD,2022-11-24 15:42:15,15.08828367,0.000254,53.2158,310.7896,32.7342,327.3807,-2.8108000000000013e-05,-7.36e-06,0.0,0 STARLINK-3451,1 51749U 22016AM  22328.65434064 -.00000736  00000-0 -28108-4 0  9997,2 51749  53.2158 310.7896 0002540  32.7342 327.3807 15.08828367 43351,6917.916,95.438,541.538,538.024,0.0
